0 DMSP 5D-2 F13 DEB
1 42316U 95015JJ  19267.94545497 +.00001564 +00000-0 +51837-3 0  9991
2 42316 098.7158 308.3892 0060335 104.5017 256.2873 14.38250451233648
0 DMSP 5D-2 F13 DEB
1 42316U 95015JJ  19268.08459272  .00001566  00000-0  51891-3 0  9994
2 42316  98.7158 308.5304 0060318 104.1027 256.6873 14.38250904233665
0 DMSP 5D-2 F13 DEB
1 42318U 95015JL  19268.82394311  .00000985  00000-0  10029-2 0  9991
2 42318  98.7371 126.1613 0237326 110.8342 251.8396 13.67182751206796
0 DMSP 5D-2 F13 DEB
1 42320U 95015JN  19267.82493436 +.00000706 +00000-0 +33979-3 0  9992
2 42320 098.7652 277.6078 0012252 218.8725 141.1572 14.21903125231186
0 DMSP 5D-2 F13 DEB
1 42321U 95015JP  19267.33497993 +.00001641 +00000-0 +61002-3 0  9998
2 42321 098.7011 295.4488 0046119 135.9294 224.5580 14.32872629232641
0 DMSP 5D-2 F13 DEB
1 42321U 95015JP  19268.31259835  .00001659  00000-0  61668-3 0  9995
2 42321  98.7011 296.4305 0046096 133.2459 227.2587 14.32875871232782
0 DMSP 5D-2 F13 DEB
1 42322U 95015JQ  19267.23161279 +.00001092 +00000-0 +54027-3 0  9992
2 42322 098.7727 259.7521 0050476 017.6991 342.5928 14.18717714230527
0 DMSP 5D-2 F13 DEB
1 42323U 95015JR  19267.46496458 +.00000100 +00000-0 +74239-4 0  9995
2 42323 098.8157 265.6129 0002870 162.0479 198.0796 14.15173096204868
0 DMSP 5D-2 F13 DEB
1 42324U 95015JS  19267.25951144 +.00001647 +00000-0 +72581-3 0  9995
2 42324 098.7767 284.1185 0013710 164.8218 195.3374 14.24728847205277
0 DMSP 5D-2 F13 DEB
1 42326U 95015JU  19267.84169843 +.00001512 +00000-0 +70619-3 0  9990
2 42326 098.8165 286.2402 0018822 156.3026 203.9022 14.21787229205248
0 DMSP 5D-2 F13 DEB
1 42327U 95015JV  19267.23691478 +.00000644 +00000-0 +32426-3 0  9997
2 42327 098.7837 273.1113 0004730 292.5671 067.5005 14.19924116203260
0 DMSP 5D-2 F13 DEB
1 42328U 95015JW  19268.44674821  .00001435  00000-0  76601-3 0  9997
2 42328  98.7805 249.9078 0046847  99.9928 260.6536 14.14283571202561
0 DMSP 5D-2 F13 DEB
1 42329U 95015JX  19268.33396144  .00001035  00000-0  33997-3 0  9992
2 42329  98.6268 302.8530 0075532  98.4842 262.4914 14.38783005209142
0 DMSP 5D-2 F13 DEB
1 42329U 95015JX  19267.29081184 +.00001033 +00000-0 +33947-3 0  9994
2 42329 098.6274 301.8046 0075488 101.4250 259.5428 14.38780857208999
0 DMSP 5D-2 F13 DEB
1 42330U 95015JY  19267.24070834 +.00001479 +00000-0 +63499-3 0  9990
2 42330 098.7443 282.7729 0015228 186.6543 173.4437 14.26202586206954
0 DMSP 5D-2 F13 DEB
1 42331U 95015JZ  19267.47879971 +.00001245 +00000-0 +56731-3 0  9997
2 42331 098.7651 278.7282 0009276 181.5211 178.5940 14.23472398200256
0 NOAA 16 DEB
1 42334U 00055QA  19268.44769650  .00000533  00000-0  28821-3 0  9998
2 42334  98.8552 351.2406 0019292  99.4496 260.8860 14.16732364162321
0 NOAA 16 DEB
1 42338U 00055QE  19268.07144438  .00001230  00000-0  52133-3 0  9990
2 42338  98.7527 351.5822 0046690   6.6624 353.5167 14.26654295186060
0 NOAA 16 DEB
1 42339U 00055QF  19268.10415848  .00000929  00000-0  48161-3 0  9991
2 42339  99.0296  14.0416 0027013 153.3789 206.8779 14.17221170177441
0 NOAA 16 DEB
1 42341U 00055QH  19268.47202127  .00000701  00000-0  32110-3 0  9993
2 42341  98.7497 349.4222 0056082  73.3022 287.4302 14.23727892187955
0 NOAA 16 DEB
1 42343U 00055QK  19268.50143303  .00003121  00000-0  14894-2 0  9996
2 42343  99.0367   8.4755 0040706 307.3475  52.3995 14.19546971176618
0 NOAA 16 DEB
1 42343U 00055QK  19267.23271883 +.00002461 +00000-0 +11793-2 0  9991
2 42343 099.0373 007.1818 0040546 311.5208 048.2491 14.19535460176430
0 NOAA 16 DEB
1 42344U 00055QL  19267.03350277 +.00000602 +00000-0 +28414-3 0  9999
2 42344 098.7562 348.3396 0046016 018.7560 341.5301 14.22940578177493
0 NOAA 16 DEB
1 42344U 00055QL  19268.01793090  .00000615  00000-0  28976-3 0  9999
2 42344  98.7562 349.3183 0045932  15.8124 344.4476 14.22941853177636
0 NOAA 16 DEB
1 42346U 00055QN  19268.62189647  .00002142  00000-0  82047-3 0  9991
2 42346  99.0550  46.4072 0058014   8.0374 352.1723 14.30776936190045
0 NOAA 16 DEB
1 42347U 00055QP  19268.51916708  .00000665  00000-0  31527-3 0  9991
2 42347  98.8722   4.0835 0055753  88.9013 271.8551 14.22141024191058
0 NOAA 16 DEB
1 42347U 00055QP  19267.04168906 +.00000671 +00000-0 +31779-3 0  9993
2 42347 098.8722 002.5972 0055881 093.0703 267.6870 14.22139047190843
0 NOAA 16 DEB
1 42348U 00055QQ  19267.34024586 +.00000274 +00000-0 +21063-3 0  9996
2 42348 098.7901 301.9846 0075886 339.4762 020.3358 13.99765466184062
0 NOAA 16 DEB
1 42348U 00055QQ  19268.34095716  .00000285  00000-0  21787-3 0  9995
2 42348  98.7900 302.9459 0075826 336.5891  23.1828 13.99766127184201
0 NOAA 16 DEB
1 42349U 00055QR  19268.45072044  .00000391  00000-0  24276-3 0  9991
2 42349  98.8354 336.8872 0008493 268.8893  91.1305 14.10860299179642
0 NOAA 16 DEB
1 42349U 00055QR  19267.38694733 +.00000417 +00000-0 +25726-3 0  9997
2 42349 098.8354 335.8413 0008382 272.4371 087.5840 14.10859320179490
0 NOAA 16 DEB
1 42352U 00055QU  19266.16685661  .00008422  00000-0  43400-2 0  9998
2 42352  98.9023 347.5288 0017453 219.1491 140.8420 14.15284704179016
0 NOAA 16 DEB
1 42353U 00055QV  19268.48248869  .00001277  00000-0  52261-3 0  9998
2 42353  98.8016   3.9206 0054744  13.1974 347.0624 14.28199919190043
0 NOAA 16 DEB
1 42353U 00055QV  19267.50168306 +.00001351 +00000-0 +55182-3 0  9995
2 42353 098.8016 002.9320 0054828 016.1820 344.1096 14.28197959189901
0 NOAA 16 DEB
1 42354U 00055QW  19268.15235775 -.00003821  00000-0 -26099-2 0  9993
2 42354  99.0733 344.5366 0034019 196.0856 163.9230 13.98836089178234
0 NOAA 16 DEB
1 42355U 00055QX  19267.36259356 +.00000439 +00000-0 +30237-3 0  9997
2 42355 098.8563 324.4043 0039116 329.9481 029.9441 14.04186046184721
0 NOAA 16 DEB
1 42358U 00055RA  19268.06279032  .00001030  00000-0  57922-3 0  9999
2 42358  98.9074 343.4721 0058889 216.5125 143.2024 14.11837938151036
0 NOAA 16 DEB
1 42359U 00055RB  19268.08950598  .00000679  00000-0  34895-3 0  9997
2 42359  98.8978 359.8268 0024655 105.7653 254.6243 14.18496003179957
0 NOAA 16 DEB
1 42360U 00055RC  19268.10040881  .00001227  00000-0  55213-3 0  9994
2 42360  98.8819   1.2675 0089561 123.3818 237.5968 14.22009986189780
0 NOAA 16 DEB
1 42360U 00055RC  19267.11532724 +.00001250 +00000-0 +56243-3 0  9996
2 42360 098.8818 000.2755 0089668 126.1242 234.8276 14.22007671189643
0 NOAA 16 DEB
1 42362U 00055RE  19268.82350318  .00000679  00000-0  57967-3 0  9992
2 42362  98.8723 283.9626 0127764  93.5302 268.0478 13.86628998185257
0 NOAA 16 DEB
1 42364U 00055RG  19268.18792961  .00000760  00000-0  42018-3 0  9999
2 42364  98.8658 343.1058 0066297 191.9729 167.9870 14.13304790179510
0 NOAA 16 DEB
1 42364U 00055RG  19267.05519138 +.00000787 +00000-0 +43395-3 0  9995
2 42364 098.8658 341.9835 0066190 195.0578 164.8625 14.13303035179355
0 NOAA 16 DEB
1 42365U 00055RH  19267.51435889 +.00000727 +00000-0 +34064-3 0  9994
2 42365 098.8959 006.5283 0058191 092.0004 268.7839 14.22415433187023
0 NOAA 16 DEB
1 42366U 00055RJ  19267.25860808 +.00001223 +00000-0 +45534-3 0  9995
2 42366 098.8614 020.1724 0072675 350.7655 009.2187 14.32462411188465
0 NOAA 16 DEB
1 42366U 00055RJ  19268.16664350  .00001240  00000-0  46154-3 0  9998
2 42366  98.8615  21.1004 0072646 348.0261  11.9192 14.32464723188597
0 NOAA 16 DEB
1 42369U 00055RM  19267.46164777 +.00001520 +00000-0 +78709-3 0  9993
2 42369 098.8254 345.1695 0011170 155.4419 204.7289 14.16383133186116
0 NOAA 16 DEB
1 42370U 00055RN  19267.92470084 +.00000729 +00000-0 +51833-3 0  9996
2 42370 098.9489 308.4334 0112236 083.1504 278.2414 13.97609153186553
0 NOAA 16 DEB
1 42370U 00055RN  19268.35423957  .00000719  00000-0  51182-3 0  9997
2 42370  98.9490 308.8520 0112131  81.9824 279.4045 13.97609839186612
0 NOAA 16 DEB
1 42373U 00055RR  19268.24865216  .00001497  00000-0  51718-3 0  9995
2 42373  99.0168  48.6954 0086871 338.7283  21.0297 14.35299207191648
0 NOAA 16 DEB
1 42375U 00055RT  19267.45194374 +.00000446 +00000-0 +26190-3 0  9998
2 42375 098.8270 339.4356 0004530 018.4991 341.6346 14.13153966177881
0 NOAA 16 DEB
1 42377U 00055RV  19267.11142398 +.00002795 +00000-0 +12416-2 0  9996
2 42377 099.0251 025.1321 0010225 025.0214 335.1457 14.23803972148593
0 NOAA 16 DEB
1 42377U 00055RV  19268.30607159  .00002752  00000-0  12227-2 0  9992
2 42377  99.0250  26.3574 0009897  16.9929 343.1578 14.23810699148766
0 NOAA 16 DEB
1 42378U 00055RW  19267.50790104 +.00000569 +00000-0 +29092-3 0  9990
2 42378 098.8377 353.2105 0027735 081.3023 279.1293 14.19328515183675
0 NOAA 16 DEB
1 42381U 00055RZ  19267.60660613 +.00002105 +00000-0 +85169-3 0  9991
2 42381 099.0095 031.6780 0046469 052.1412 308.3958 14.28334306184543
0 NOAA 16 DEB
1 42381U 00055RZ  19268.16701209  .00002077  00000-0  84052-3 0  9998
2 42381  99.0096  32.2563 0046359  50.4445 310.0817 14.28336498184622
0 NOAA 16 DEB
1 42382U 00055SA  19268.13372510  .00000969  00000-0  60528-3 0  9995
2 42382  98.9519 340.2087 0047111 302.1829  57.4775 14.06637181181940
0 NOAA 16 DEB
1 42383U 00055SB  19267.46975339 +.00000859 +00000-0 +48038-3 0  9999
2 42383 098.8893 339.6929 0050970 020.8304 339.4930 14.12760844182713
0 NOAA 16 DEB
1 42384U 00055SC  19268.41703689  .00000525  00000-0  29845-3 0  9998
2 42384  98.8115 339.3324 0020339 175.8429 184.2916 14.14069579183240
0 NOAA 16 DEB
1 42385U 00055SD  19267.42804874 +.00000563 +00000-0 +30883-3 0  9993
2 42385 098.7890 338.3608 0011825 119.3789 240.8567 14.15790910178332
0 NOAA 16 DEB
1 42387U 00055SF  19267.45351391 +.00000604 +00000-0 +32705-3 0  9990
2 42387 098.8580 348.9398 0022848 144.5936 215.6760 14.16174159185789
